{
  "norad_id": 900,
  "name": "CALSPHERE 1",
  "history": [
    {
      "epoch": "2026-03-28T21:53:52.982592Z",
      "apogee_km": 995.0219794751874,
      "perigee_km": 957.4684446733172,
      "latitude_deg": 32.11526450507577,
      "longitude_deg": -85.04314115504862,
      "height_km": 994.3635414135205,
      "semi_major_axis_km": 7354.382212074252,
      "eccentricity": 0.00255314,
      "inclination_deg": 90.218,
      "raan_deg": 69.8898,
      "arg_perigee_deg": 169.9587,
      "mean_anomaly_deg": 222.2971,
      "mean_motion_rev_day": 13.76522983
    },
    {
      "epoch": "2026-03-29T04:46:41.797632Z",
      "apogee_km": 995.0484103534009,
      "perigee_km": 957.4366425791477,
      "latitude_deg": 11.849176379647226,
      "longitude_deg": 171.5681035736012,
      "height_km": 995.8065481259644,
      "semi_major_axis_km": 7354.379526466274,
      "eccentricity": 0.0025571,
      "inclination_deg": 90.2181,
      "raan_deg": 69.8964,
      "arg_perigee_deg": 169.0644,
      "mean_anomaly_deg": 202.9437,
      "mean_motion_rev_day": 13.76523737
    },
    {
      "epoch": "2026-03-30T05:11:46.853664Z",
      "apogee_km": 995.1343103699483,
      "perigee_km": 957.3403278315773,
      "latitude_deg": 10.565373881712974,
      "longitude_deg": 164.3226384413836,
      "height_km": 995.6508605587501,
      "semi_major_axis_km": 7354.3743191007625,
      "eccentricity": 0.00256949,
      "inclination_deg": 90.2183,
      "raan_deg": 69.9198,
      "arg_perigee_deg": 165.9756,
      "mean_anomaly_deg": 204.7654,
      "mean_motion_rev_day": 13.76525199
    },
    {
      "epoch": "2026-03-30T10:59:52.978848Z",
      "apogee_km": 995.1556334425504,
      "perigee_km": 957.3163547756394,
      "latitude_deg": 52.33617495823967,
      "longitude_deg": -102.61369741126639,
      "height_km": 969.7822488918387,
      "semi_major_axis_km": 7354.372994109094,
      "eccentricity": 0.00257257,
      "inclination_deg": 90.2183,
      "raan_deg": 69.9254,
      "arg_perigee_deg": 165.2411,
      "mean_anomaly_deg": 322.6971,
      "mean_motion_rev_day": 13.76525571
    },
    {
      "epoch": "2026-03-30T22:43:17.889312Z",
      "apogee_km": 995.1960246141762,
      "perigee_km": 957.2699797750583,
      "latitude_deg": 26.96698446074769,
      "longitude_deg": -99.32950321847402,
      "height_km": 993.4221092415721,
      "semi_major_axis_km": 7354.370002194617,
      "eccentricity": 0.00257847,
      "inclination_deg": 90.2183,
      "raan_deg": 69.9367,
      "arg_perigee_deg": 163.7672,
      "mean_anomaly_deg": 223.3673,
      "mean_motion_rev_day": 13.76526411
    },
    {
      "epoch": "2026-03-31T21:25:26.902272Z",
      "apogee_km": 995.2762886778328,
      "perigee_km": 957.1792084074323,
      "latitude_deg": 31.688971309809148,
      "longitude_deg": -80.80131037749658,
      "height_km": 992.3880409929428,
      "semi_major_axis_km": 7354.364748542633,
      "eccentricity": 0.0025901,
      "inclination_deg": 90.2185,
      "raan_deg": 69.9585,
      "arg_perigee_deg": 160.905,
      "mean_anomaly_deg": 230.9597,
      "mean_motion_rev_day": 13.76527886
    },
    {
      "epoch": "2026-04-01T20:22:05.492352Z",
      "apogee_km": 995.3572140486585,
      "perigee_km": 957.0895352751422,
      "latitude_deg": 86.1702764710676,
      "longitude_deg": -69.00003480432743,
      "height_km": 984.063305164636,
      "semi_major_axis_km": 7354.3603746619,
      "eccentricity": 0.0026017,
      "inclination_deg": 90.2187,
      "raan_deg": 69.9805,
      "arg_perigee_deg": 158.0311,
      "mean_anomaly_deg": 288.4133,
      "mean_motion_rev_day": 13.76529114
    },
    {
      "epoch": "2026-04-02T18:58:38.962272Z",
      "apogee_km": 995.4325974118492,
      "perigee_km": 956.997283301158,
      "latitude_deg": 71.7220039818609,
      "longitude_deg": -46.453699248450285,
      "height_km": 986.4730832162533,
      "semi_major_axis_km": 7354.351940356503,
      "eccentricity": 0.0026131,
      "inclination_deg": 90.2189,
      "raan_deg": 70.0023,
      "arg_perigee_deg": 155.2071,
      "mean_anomaly_deg": 276.7474,
      "mean_motion_rev_day": 13.76531482
    }
  ]
}